STARLINK-36122          
1 66952U 25286AD  25359.91668981 -.01968505  00000+0 -29357-1 0  9995
2 66952  53.1588 344.7116 0001445 100.1290 170.0238 15.57981987  4109
HULIANWANG DIGUI-114    
1 66953U 25287A   25354.38141962  .00000019  00000+0  30336-5 0  9995
2 66953  86.4960 343.3747 0009673 185.0352 175.0710 13.66161866  1572
HULIANWANG DIGUI-115    
1 66954U 25287B   25358.92426492  .00000023  00000+0  84421-5 0  9993
2 66954  86.5036 341.7372 0003385 109.9724 250.1798 13.63539042  2198
HULIANWANG DIGUI-116    
1 66955U 25287C   25358.99508699  .00000148  00000+0  16529-3 0  9991
2 66955  86.4919 341.6856 0001633  94.3011 265.8333 13.64194122  2201
HULIANWANG DIGUI-117    
1 66956U 25287D   25358.91908891  .00000024  00000+0  90260-5 0  9991
2 66956  86.4976 341.7257 0001044 103.5815 256.5458 13.64670553  2192
HULIANWANG DIGUI-118    
1 66957U 25287E   25355.03488252  .00000128  00000+0  13223-3 0  9993
2 66957  86.4946 343.1304 0005472 170.9065 189.2194 13.67510110  1668
CZ-6A R/B               
1 66958U 25287F   25359.82996879  .00000100  00000+0  57918-4 0  9994
2 66958  86.5065 341.1242 0107098  62.8058 298.3983 13.94921619  2365
STARLINK-35887          
1 66959U 25288A   25359.91668981 -.02017497  00000+0 -24926-1 0  9997
2 66959  43.0003  86.9095 0001380 286.1692 162.2865 15.62696845  3948
STARLINK-35879          
1 66960U 25288B   25359.91668981 -.02021999  00000+0 -24985-1 0  9996
2 66960  43.0001  86.9045 0001405 286.1518 164.2179 15.62701518  3942
STARLINK-35761          
1 66961U 25288C   25359.91668981 -.02017783  00000+0 -24934-1 0  9997
2 66961  42.9999  86.9001 0001328 280.9537 171.3429 15.62693611  3947
STARLINK-35874          
1 66962U 25288D   25359.91668981 -.02016561  00000+0 -24910-1 0  9995
2 66962  42.9999  86.8957 0001555 287.7554 166.4505 15.62697471  3941
STARLINK-36133          
1 66963U 25288E   25359.91668981 -.02022412  00000+0 -24990-1 0  9996
2 66963  43.0001  86.8901 0001427 283.3252 172.7962 15.62701533  3944
